{
  "type": "FeatureCollection",
  "features": [
    {
      "type": "Feature",
      "properties": {
        "norad_id": 31062,
        "name": "FENGYUN 1C DEB",
        "group": "fengyun-1c-debris",
        "lat": -73.95244112451874,
        "lon": -41.530055380981864,
        "alt_km": 909.9494311052176,
        "timestamp": "2025-12-15T15:53:20.132058+00:00",
        "meta_object_name": "FENGYUN 1C DEB",
        "meta_object_id": "1999-025BFG",
        "meta_epoch": "2025-12-14T10:51:17.551008",
        "meta_mean_motion": 13.75692796,
        "meta_eccentricity": 0.01715475,
        "meta_inclination": 98.9966,
        "meta_ra_of_asc_node": 170.7461,
        "meta_arg_of_pericenter": 313.3068,
        "meta_mean_anomaly": 76.8096,
        "meta_ephemeris_type": 0,
        "meta_classification_type": "U",
        "meta_norad_cat_id": 31062,
        "meta_element_set_no": 999,
        "meta_rev_at_epoch": 94257,
        "meta_bstar": 0.00035260475,
        "meta_mean_motion_dot": 3.37e-06,
        "meta_mean_motion_ddot": 0,
        "tle_line1": "1 31062U 99025BFG 25348.45228647  .00000337  00000+0  35260-3 0  9998",
        "tle_line2": "2 31062  98.9966 170.7461 0171547 313.3068  76.8096 13.75692796942574"
      },
      "geometry": {
        "type": "Point",
        "coordinates": [
          -41.530055380981864,
          -73.95244112451874
        ]
      }
    },
    {
      "type": "Feature",
      "properties": {
        "norad_id": 31064,
        "name": "FENGYUN 1C DEB",
        "group": "fengyun-1c-debris",
        "lat": 1.4890425887224397,
        "lon": 152.49399325775573,
        "alt_km": 993.8287794532034,
        "timestamp": "2025-12-15T15:53:20.132067+00:00",
        "meta_object_name": "FENGYUN 1C DEB",
        "meta_object_id": "1999-025BFJ",
        "meta_epoch": "2025-12-14T22:18:03.510720",
        "meta_mean_motion": 14.22139925,
        "meta_eccentricity": 0.02413906,
        "meta_inclination": 98.5739,
        "meta_ra_of_asc_node": 331.556,
        "meta_arg_of_pericenter": 355.2741,
        "meta_mean_anomaly": 33.6089,
        "meta_ephemeris_type": 0,
        "meta_classification_type": "U",
        "meta_norad_cat_id": 31064,
        "meta_element_set_no": 999,
        "meta_rev_at_epoch": 97286,
        "meta_bstar": 0.00040345463,
        "meta_mean_motion_dot": 1.155e-05,
        "meta_mean_motion_ddot": 0,
        "tle_line1": "1 31064U 99025BFJ 25348.92920730  .00001155  00000+0  40345-3 0  9993",
        "tle_line2": "2 31064  98.5739 331.5560 0241390 355.2741  33.6089 14.22139925972865"
      },
      "geometry": {
        "type": "Point",
        "coordinates": [
          152.49399325775573,
          1.4890425887224397
        ]
      }
    },
    {
      "type": "Feature",
      "properties": {
        "norad_id": 31065,
        "name": "FENGYUN 1C DEB",
        "group": "fengyun-1c-debris",
        "lat": 7.47495535694435,
        "lon": -170.19856055342973,
        "alt_km": 821.3966753474351,
        "timestamp": "2025-12-15T15:53:20.132076+00:00",
        "meta_object_name": "FENGYUN 1C DEB",
        "meta_object_id": "1999-025BFK",
        "meta_epoch": "2025-12-13T07:35:59.491392",
        "meta_mean_motion": 14.28179261,
        "meta_eccentricity": 0.00351676,
        "meta_inclination": 98.4666,
        "meta_ra_of_asc_node": 6.4073,
        "meta_arg_of_pericenter": 29.7365,
        "meta_mean_anomaly": 330.5806,
        "meta_ephemeris_type": 0,
        "meta_classification_type": "U",
        "meta_norad_cat_id": 31065,
        "meta_element_set_no": 999,
        "meta_rev_at_epoch": 64586,
        "meta_bstar": 0.0013755,
        "meta_mean_motion_dot": 3.406e-05,
        "meta_mean_motion_ddot": 0,
        "tle_line1": "1 31065U 99025BFK 25347.31666078  .00003406  00000+0  13755-2 0  9993",
        "tle_line2": "2 31065  98.4666   6.4073 0035167  29.7365 330.5806 14.28179261645865"
      },
      "geometry": {
        "type": "Point",
        "coordinates": [
          -170.19856055342973,
          7.47495535694435
        ]
      }
    },
    {
      "type": "Feature",
      "properties": {
        "norad_id": 31068,
        "name": "FENGYUN 1C DEB",
        "group": "fengyun-1c-debris",
        "lat": 10.163826175808877,
        "lon": -29.849293640267238,
        "alt_km": 881.4534110478617,
        "timestamp": "2025-12-15T15:53:20.132084+00:00",
        "meta_object_name": "FENGYUN 1C DEB",
        "meta_object_id": "1999-025BFN",
        "meta_epoch": "2025-12-08T16:50:26.088576",
        "meta_mean_motion": 14.0918717,
        "meta_eccentricity": 0.01655633,
        "meta_inclination": 98.6287,
        "meta_ra_of_asc_node": 325.0408,
        "meta_arg_of_pericenter": 129.6248,
        "meta_mean_anomaly": 231.9669,
        "meta_ephemeris_type": 0,
        "meta_classification_type": "U",
        "meta_norad_cat_id": 31068,
        "meta_element_set_no": 999,
        "meta_rev_at_epoch": 96298,
        "meta_bstar": 0.00020953749,
        "meta_mean_motion_dot": 3.73e-06,
        "meta_mean_motion_ddot": 0,
        "tle_line1": "1 31068U 99025BFN 25342.70169084  .00000373  00000+0  20954-3 0  9999",
        "tle_line2": "2 31068  98.6287 325.0408 0165563 129.6248 231.9669 14.09187170962988"
      },
      "geometry": {
        "type": "Point",
        "coordinates": [
          -29.849293640267238,
          10.163826175808877
        ]
      }
    },
    {
      "type": "Feature",
      "properties": {
        "norad_id": 31069,
        "name": "FENGYUN 1C DEB",
        "group": "fengyun-1c-debris",
        "lat": 29.52619937284115,
        "lon": -24.575633557693333,
        "alt_km": 689.073142571543,
        "timestamp": "2025-12-15T15:53:20.132093+00:00",
        "meta_object_name": "FENGYUN 1C DEB",
        "meta_object_id": "1999-025BFP",
        "meta_epoch": "2025-12-14T06:15:11.146752",
        "meta_mean_motion": 14.57122356,
        "meta_eccentricity": 0.01045155,
        "meta_inclination": 99.0993,
        "meta_ra_of_asc_node": 148.6864,
        "meta_arg_of_pericenter": 72.8451,
        "meta_mean_anomaly": 288.4157,
        "meta_ephemeris_type": 0,
        "meta_classification_type": "U",
        "meta_norad_cat_id": 31069,
        "meta_element_set_no": 999,
        "meta_rev_at_epoch": 98708,
        "meta_bstar": 0.00080320029,
        "meta_mean_motion_dot": 3.844e-05,
        "meta_mean_motion_ddot": 0,
        "tle_line1": "1 31069U 99025BFP 25348.26054568  .00003844  00000+0  80320-3 0  9996",
        "tle_line2": "2 31069  99.0993 148.6864 0104515  72.8451 288.4157 14.57122356987083"
      },
      "geometry": {
        "type": "Point",
        "coordinates": [
          -24.575633557693333,
          29.52619937284115
        ]
      }
    },
    {
      "type": "Feature",
      "properties": {
        "norad_id": 31071,
        "name": "FENGYUN 1C DEB",
        "group": "fengyun-1c-debris",
        "lat": -17.99926635889345,
        "lon": -115.332372060314,
        "alt_km": 711.3359277718237,
        "timestamp": "2025-12-15T15:53:20.132102+00:00",
        "meta_object_name": "FENGYUN 1C DEB",
        "meta_object_id": "1999-025BFR",
        "meta_epoch": "2025-12-13T11:43:41.189952",
        "meta_mean_motion": 14.52642169,
        "meta_eccentricity": 0.00557127,
        "meta_inclination": 99.0416,
        "meta_ra_of_asc_node": 65.2927,
        "meta_arg_of_pericenter": 279.4703,
        "meta_mean_anomaly": 80.0196,
        "meta_ephemeris_type": 0,
        "meta_classification_type": "U",
        "meta_norad_cat_id": 31071,
        "meta_element_set_no": 999,
        "meta_rev_at_epoch": 65505,
        "meta_bstar": 0.0017988097,
        "meta_mean_motion_dot": 7.47e-05,
        "meta_mean_motion_ddot": 0,
        "tle_line1": "1 31071U 99025BFR 25347.48867118  .00007470  00000+0  17988-2 0  9993",
        "tle_line2": "2 31071  99.0416  65.2927 0055712 279.4703  80.0196 14.52642169655051"
      },
      "geometry": {
        "type": "Point",
        "coordinates": [
          -115.332372060314,
          -17.99926635889345
        ]
      }
    },
    {
      "type": "Feature",
      "properties": {
        "norad_id": 31072,
        "name": "FENGYUN 1C DEB",
        "group": "fengyun-1c-debris",
        "lat": 41.98330667840877,
        "lon": -176.25669161516763,
        "alt_km": 700.0770151669885,
        "timestamp": "2025-12-15T15:53:20.132111+00:00",
        "meta_object_name": "FENGYUN 1C DEB",
        "meta_object_id": "1999-025BFS",
        "meta_epoch": "2025-12-12T23:15:11.625120",
        "meta_mean_motion": 14.25484049,
        "meta_eccentricity": 0.02104692,
        "meta_inclination": 99.3329,
        "meta_ra_of_asc_node": 352.3667,
        "meta_arg_of_pericenter": 97.0999,
        "meta_mean_anomaly": 265.4161,
        "meta_ephemeris_type": 0,
        "meta_classification_type": "U",
        "meta_norad_cat_id": 31072,
        "meta_element_set_no": 999,
        "meta_rev_at_epoch": 96646,
        "meta_bstar": 0.0008693152,
        "meta_mean_motion_dot": 2.539e-05,
        "meta_mean_motion_ddot": 0,
        "tle_line1": "1 31072U 99025BFS 25346.96888455  .00002539  00000+0  86932-3 0  9990",
        "tle_line2": "2 31072  99.3329 352.3667 0210469  97.0999 265.4161 14.25484049966464"
      },
      "geometry": {
        "type": "Point",
        "coordinates": [
          -176.25669161516763,
          41.98330667840877
        ]
      }
    }
  ]
}